{"type": "FeatureCollection", "features": [ {"type": "Feature", "properties": {"norad_id": 34376, "name": "IRIDIUM 33 DEB", "group": "iridium-33-debris", "lat": -37.318515707610466, "lon": -177.48316403087534, "alt_km": 694.275665830778, "timestamp": "2025-12-27T23:26:37.748396+00:00", "meta": {"OBJECT_NAME": "IRIDIUM 33 DEB", "OBJECT_ID": "1997-051FU", "EPOCH": "2025-12-26T23:28:16.470624", "MEAN_MOTION": 14.62769588, "ECCENTRICITY": 0.002868, "INCLINATION": 86.2986, "RA_OF_ASC_NODE": 0.1373, "ARG_OF_PERICENTER": 120.2874, "MEAN_ANOMALY": 240.1181, "EPHEMERIS_TYPE": 0, "CLASSIFICATION_TYPE": "U", "NORAD_CAT_ID": 34376, "ELEMENT_SET_NO": 999, "REV_AT_EPOCH": 88215, "BSTAR": 0.0018717, "MEAN_MOTION_DOT": 9.625e-05, "MEAN_MOTION_DDOT": 0}, "tle": {"line1": "1 34376U 97051FU  25360.97796841  .00009625  00000+0  18717-2 0  9999", "line2": "2 34376  86.2986   0.1373 0028680 120.2874 240.1181 14.62769588882153"}}, "geometry": {"type": "Point", "coordinates": [-177.48316403087534, -37.318515707610466]}}, {"type": "Feature", "properties": {"norad_id": 34486, "name": "IRIDIUM 33 DEB", "group": "iridium-33-debris", "lat": 72.97729149038858, "lon": 173.10050652322843, "alt_km": 563.1696832848274, "timestamp": "2025-12-27T23:26:37.748407+00:00", "meta": {"OBJECT_NAME": "IRIDIUM 33 DEB", "OBJECT_ID": "1997-051GB", "EPOCH": "2025-12-27T06:59:53.439936", "MEAN_MOTION": 14.96479608, "ECCENTRICITY": 0.0013905, "INCLINATION": 86.394, "RA_OF_ASC_NODE": 5.3037, "ARG_OF_PERICENTER": 70.6899, "MEAN_ANOMALY": 306.6609, "EPHEMERIS_TYPE": 0, "CLASSIFICATION_TYPE": "U", "NORAD_CAT_ID": 34486, "ELEMENT_SET_NO": 999, "REV_AT_EPOCH": 89204, "BSTAR": 0.0025812, "MEAN_MOTION_DOT": 0.00029467, "MEAN_MOTION_DDOT": 0}, "tle": {"line1": "1 34486U 97051GB  25361.29159074  .00029467  00000+0  25812-2 0  9998", "line2": "2 34486  86.3940   5.3037 0013905  70.6899 306.6609 14.96479608892049"}}, "geometry": {"type": "Point", "coordinates": [173.10050652322843, 72.97729149038858]}}, {"type": "Feature", "properties": {"norad_id": 34487, "name": "IRIDIUM 33 DEB", "group": "iridium-33-debris", "lat": 75.50837078555095, "lon": 171.48975470760433, "alt_km": 718.9786491627065, "timestamp": "2025-12-27T23:26:37.748418+00:00", "meta": {"OBJECT_NAME": "IRIDIUM 33 DEB", "OBJECT_ID": "1997-051GC", "EPOCH": "2025-12-26T00:37:21.163296", "MEAN_MOTION": 14.43232747, "ECCENTRICITY": 0.00332617, "INCLINATION": 86.3429, "RA_OF_ASC_NODE": 6.6563, "ARG_OF_PERICENTER": 87.1121, "MEAN_ANOMALY": 327.0907, "EPHEMERIS_TYPE": 0, "CLASSIFICATION_TYPE": "U", "NORAD_CAT_ID": 34487, "ELEMENT_SET_NO": 999, "REV_AT_EPOCH": 88440, "BSTAR": 0.00018559814, "MEAN_MOTION_DOT": 6.49e-06, "MEAN_MOTION_DDOT": 0}, "tle": {"line1": "1 34487U 97051GC  25360.02593939  .00000649  00000+0  18560-3 0  9995", "line2": "2 34487  86.3429   6.6563 0033261  87.1121 327.0907 14.43232747884400"}}, "geometry": {"type": "Point", "coordinates": [171.48975470760433, 75.50837078555095]}}, {"type": "Feature", "properties": {"norad_id": 34488, "name": "IRIDIUM 33 DEB", "group": "iridium-33-debris", "lat": -37.69841318987611, "lon": 121.09209458165824, "alt_km": 477.1322474484623, "timestamp": "2025-12-27T23:26:37.748428+00:00", "meta": {"OBJECT_NAME": "IRIDIUM 33 DEB", "OBJECT_ID": "1997-051GD", "EPOCH": "2025-12-27T02:08:12.094368", "MEAN_MOTION": 15.33259084, "ECCENTRICITY": 0.00080848, "INCLINATION": 86.3256, "RA_OF_ASC_NODE": 298.6875, "ARG_OF_PERICENTER": 29.5801, "MEAN_ANOMALY": 330.5905, "EPHEMERIS_TYPE": 0, "CLASSIFICATION_TYPE": "U", "NORAD_CAT_ID": 34488, "ELEMENT_SET_NO": 999, "REV_AT_EPOCH": 89459, "BSTAR": 0.0056271012, "MEAN_MOTION_DOT": 0.00185034, "MEAN_MOTION_DDOT": 0}, "tle": {"line1": "1 34488U 97051GD  25361.08902887  .00185034  00000+0  56271-2 0  9991", "line2": "2 34488  86.3256 298.6875 0008084  29.5801 330.5905 15.33259084894599"}}, "geometry": {"type": "Point", "coordinates": [121.09209458165824, -37.69841318987611]}}, {"type": "Feature", "properties": {"norad_id": 34492, "name": "IRIDIUM 33 DEB", "group": "iridium-33-debris", "lat": -36.00769059843614, "lon": -34.099655608833395, "alt_km": 906.7551379938286, "timestamp": "2025-12-27T23:26:37.748438+00:00", "meta": {"OBJECT_NAME": "IRIDIUM 33 DEB", "OBJECT_ID": "1997-051GH", "EPOCH": "2025-12-26T22:37:45.027264", "MEAN_MOTION": 14.25970282, "ECCENTRICITY": 0.0188844, "INCLINATION": 86.473, "RA_OF_ASC_NODE": 328.887, "ARG_OF_PERICENTER": 192.0084, "MEAN_ANOMALY": 226.0259, "EPHEMERIS_TYPE": 0, "CLASSIFICATION_TYPE": "U", "NORAD_CAT_ID": 34492, "ELEMENT_SET_NO": 999, "REV_AT_EPOCH": 85261, "BSTAR": 0.0032813, "MEAN_MOTION_DOT": 9.462e-05, "MEAN_MOTION_DDOT": 0}, "tle": {"line1": "1 34492U 97051GH  25360.94288226  .00009462  00000+0  32813-2 0  9990", "line2": "2 34492  86.4730 328.8870 0188844 192.0084 226.0259 14.25970282852613"}}, "geometry": {"type": "Point", "coordinates": [-34.099655608833395, -36.00769059843614]}}, {"type": "Feature", "properties": {"norad_id": 34497, "name": "IRIDIUM 33 DEB", "group": "iridium-33-debris", "lat": -70.38372656708228, "lon": 35.36521559753102, "alt_km": 751.4559966273773, "timestamp": "2025-12-27T23:26:37.748449+00:00", "meta": {"OBJECT_NAME": "IRIDIUM 33 DEB", "OBJECT_ID": "1997-051GN", "EPOCH": "2025-12-22T21:33:03.136608", "MEAN_MOTION": 14.27482363, "ECCENTRICITY": 0.00780484, "INCLINATION": 86.2769, "RA_OF_ASC_NODE": 48.0617, "ARG_OF_PERICENTER": 306.2683, "MEAN_ANOMALY": 179.2919, "EPHEMERIS_TYPE": 0, "CLASSIFICATION_TYPE": "U", "NORAD_CAT_ID": 34497, "ELEMENT_SET_NO": 999, "REV_AT_EPOCH": 87028, "BSTAR": 0.00056228088, "MEAN_MOTION_DOT": 1.443e-05, "MEAN_MOTION_DDOT": 0}, "tle": {"line1": "1 34497U 97051GN  25356.89795297  .00001443  00000+0  56228-3 0  9993", "line2": "2 34497  86.2769  48.0617 0078048 306.2683 179.2919 14.27482363870281"}}, "geometry": {"type": "Point", "coordinates": [35.36521559753102, -70.38372656708228]}}, {"type": "Feature", "properties": {"norad_id": 34508, "name": "IRIDIUM 33 DEB", "group": "iridium-33-debris", "lat": -30.074991263680992, "lon": 94.07611181810259, "alt_km": 812.1718569257937, "timestamp": "2025-12-27T23:26:37.748459+00:00", "meta": {"OBJECT_NAME": "IRIDIUM 33 DEB", "OBJECT_ID": "1997-051GZ", "EPOCH": "2025-12-27T06:53:26.818080", "MEAN_MOTION": 14.38536882, "ECCENTRICITY": 0.0066726, "INCLINATION": 86.3698, "RA_OF_ASC_NODE": 96.4755, "ARG_OF_PERICENTER": 126.3522, "MEAN_ANOMALY": 234.386, "EPHEMERIS_TYPE": 0, "CLASSIFICATION_TYPE": "U", "NORAD_CAT_ID": 34508, "ELEMENT_SET_NO": 999, "REV_AT_EPOCH": 87518, "BSTAR": 0.0013019, "MEAN_MOTION_DOT": 4.103e-05, "MEAN_MOTION_DDOT": 0}, "tle": {"line1": "1 34508U 97051GZ  25361.28711595  .00004103  00000+0  13019-2 0  9990", "line2": "2 34508  86.3698  96.4755 0066726 126.3522 234.3860 14.38536882875189"}}, "geometry": {"type": "Point", "coordinates": [94.07611181810259, -30.074991263680992]}}, {"type": "Feature", "properties": {"norad_id": 34521, "name": "IRIDIUM 33 DEB", "group": "iridium-33-debris", "lat": 73.87116944138205, "lon": 36.48648197829033, "alt_km": 674.6987631229822, "timestamp": "2025-12-27T23:26:37.748469+00:00", "meta": {"OBJECT_NAME": "IRIDIUM 33 DEB", "OBJECT_ID": "1997-051HN", "EPOCH": "2025-12-27T11:37:07.441824", "MEAN_MOTION": 14.63491887, "ECCENTRICITY": 0.0003409, "INCLINATION": 86.3792, "RA_OF_ASC_NODE": 24.055, "ARG_OF_PERICENTER": 160.324, "MEAN_ANOMALY": 199.8105, "EPHEMERIS_TYPE": 0, "CLASSIFICATION_TYPE": "U", "NORAD_CAT_ID": 34521, "ELEMENT_SET_NO": 999, "REV_AT_EPOCH": 88688, "BSTAR": 0.00097765, "MEAN_MOTION_DOT": 5.086e-05, "MEAN_MOTION_DDOT": 0}, "tle": {"line1": "1 34521U 97051HN  25361.48411391  .00005086  00000+0  97765-3 0  9990", "line2": "2 34521  86.3792  24.0550 0003409 160.3240 199.8105 14.63491887886882"}}, "geometry": {"type": "Point", "coordinates": [36.48648197829033, 73.87116944138205]}}, {"type": "Feature", "properties": {"norad_id": 34525, "name": "IRIDIUM 33 DEB", "group": "iridium-33-debris", "lat": -30.328256593501468, "lon": -137.53351968125895, "alt_km": 758.6778882367462, "timestamp": "2025-12-27T23:26:37.748480+00:00", "meta": {"OBJECT_NAME": "IRIDIUM 33 DEB", "OBJECT_ID": "1997-051HS", "EPOCH": "2025-12-27T02:46:13.062144", "MEAN_MOTION": 14.42939848, "ECCENTRICITY": 0.00061196, "INCLINATION": 86.3716, "RA_OF_ASC_NODE": 40.7068, "ARG_OF_PERICENTER": 61.7573, "MEAN_ANOMALY": 356.7447, "EPHEMERIS_TYPE": 0, "CLASSIFICATION_TYPE": "U", "NORAD_CAT_ID": 34525, "ELEMENT_SET_NO": 999, "REV_AT_EPOCH": 88295, "BSTAR": 0.00039403064, "MEAN_MOTION_DOT": 1.337e-05, "MEAN_MOTION_DDOT": 0}, "tle": {"line1": "1 34525U 97051HS  25361.11542896  .00001337  00000+0  39403-3 0  9999", "line2": "2 34525  86.3716  40.7068 0006119  61.7573 356.7447 14.42939848882953"}}, "geometry": {"type": "Point", "coordinates": [-137.53351968125895, -30.328256593501468]}}, {"type": "Feature", "properties": {"norad_id": 34529, "name": "IRIDIUM 33 DEB", "group": "iridium-33-debris", "lat": -21.10903041626147, "lon": 27.507945004188333, "alt_km": 765.9066816086242, "timestamp": "2025-12-27T23:26:37.748490+00:00", "meta": {"OBJECT_NAME": "IRIDIUM 33 DEB", "OBJECT_ID": "1997-051HW", "EPOCH": "2025-12-27T11:52:22.412640", "MEAN_MOTION": 14.4062826, "ECCENTRICITY": 0.0006367, "INCLINATION": 86.3627, "RA_OF_ASC_NODE": 29.1206, "ARG_OF_PERICENTER": 135.9273, "MEAN_ANOMALY": 224.2435, "EPHEMERIS_TYPE": 0, "CLASSIFICATION_TYPE": "U", "NORAD_CAT_ID": 34529, "ELEMENT_SET_NO": 999, "REV_AT_EPOCH": 88354, "BSTAR": 0.00014818, "MEAN_MOTION_DOT": 4.92e-06, "MEAN_MOTION_DDOT": 0}, "tle": {"line1": "1 34529U 97051HW  25361.49470385  .00000492  00000+0  14818-3 0  9991", "line2": "2 34529  86.3627  29.1206 0006367 135.9273 224.2435 14.40628260883542"}}, "geometry": {"type": "Point", "coordinates": [27.507945004188333, -21.10903041626147]}}]}